C/2020 PV6 (PANSTARRS),e,128.2390,329.1451,71.3895,41.86439,0.0036386,0.94516352,0.7895,05/01.0/2022,2000,g 10.0,4.0
# From MPEC 2021-N06
C/2020 Q1 (Borisov),e,142.9195,52.4104,9.9023,58.58641,0.0021979,0.97754938,0.0000,08/14.5293/2020,2000,g 14.0,4.0
# From MPEC 2022-C56
C/2020 R2 (PANSTARRS),e,53.2285,195.0937,211.7468,406.0433,0.0001205,0.98844485,0.0000,02/24.5819/2022,2000,g  9.0,4.0
# From MPEC 2022-ED3
C/2020 R4 (ATLAS),e,164.4620,323.2744,46.7213,99.11729,0.0009988,0.98962268,0.0000,03/01.9826/2021,2000,g 13.5,4.0
# From MPEC 2020-W26
P/2020 R5 (PANSTARRS),e,11.4507,272.9774,82.4752,4.983747,0.0885870,0.31472312,62.1841,05/01.0/2022,2000,g  9.5,6.0
# From MPEC 2021-Y10
C/2020 R6 (Rankin),e,82.8118,12.1778,271.9997,346.0499,0.0001531,0.99095028,0.0000,09/09.4114/2019,2000,g 11.0,4.0
# From MPEC 2022-HC2
C/2020 R7 (ATLAS),h,09/16.2177/2022,114.8907,268.2818,347.8327,1.000044,2.955948,2000,7.0,3.2
# From MPEC 2021-BE3
P/2020 S1 (PANSTARRS),e,13.7330,129.4619,254.9395,5.986650,0.0672866,0.50756843,31.5424,05/01.0/2022,2000,g 14.0,4.0
# From MPEC 2021-BE3
C/2020 S2 (PANSTARRS),e,22.4006,197.6694,202.3010,10.20272,0.0302433,0.82787360,14.9697,05/01.0/2022,2000,g 17.0,4.0
# From MPEC 2022-C56
C/2020 S3 (Erasmus),e,19.9605,222.7202,350.0279,171.0186,0.0004407,0.99768156,0.0000,12/12.6172/2020,2000,g 13.5,3.2
# From MPEC 2022-H04
C/2020 S4 (PANSTARRS),h,02/09.3092/2023,20.5727,117.7217,21.0039,1.000594,3.369551,2000,8.5,3.2
# From MPEC 2021-BE3
P/2020 S5 (PANSTARRS),e,12.3527,316.0021,53.1206,4.051915,0.1208408,0.33861298,76.1529,05/01.0/2022,2000,g 14.5,4.0
# From MPEC 2021-P47
P/2020 S6 (Leonard),e,15.4602,242.5486,176.6708,3.600076,0.1442901,0.47937258,75.5085,05/01.0/2022,2000,g 16.0,4.0
# From MPEC 2021-BE3
P/2020 S7 (PANSTARRS),e,16.0917,328.0206,40.4899,5.026611,0.0874563,0.41071266,46.2261,05/01.0/2022,2000,g 14.5,4.0
# From MPEC 2021-P47
C/2020 S8 (Lemmon),e,108.5256,24.0586,160.3254,274.4127,0.0002168,0.99138701,0.0000,04/10.9105/2021,2000,g 12.5,4.0
# From MPEC 2022-HC2
C/2020 T2 (Palomar),e,27.8653,83.0321,150.4297,323.8311,0.0001691,0.99365316,0.0000,07/11.2074/2021,2000,g 11.0,3.2
# From MPEC 2021-N06
P/2020 T3 (PANSTARRS),e,7.2961,74.0039,357.0358,3.517331,0.1494115,0.59174867,69.5499,05/01.0/2022,2000,g 18.0,3.2
# From MPEC 2021-N06
C/2020 T4 (PANSTARRS),h,07/05.2603/2021,83.8192,50.6154,79.6104,1.000074,2.191897,2000,13.0,3.2
# From MPEC 2021-BE3
C/2020 T5 (Lemmon),e,66.5846,237.8574,90.3109,816.7800,0.0000422,0.99768643,0.0000,10/09.5847/2020,2000,g 16.0,4.0
# From MPEC 2021-N06
P/2020 U2 (PANSTARRS),e,6.4210,342.8990,84.6361,3.778047,0.1342156,0.51079380,65.9328,05/01.0/2022,2000,g 18.0,4.0
# From MPEC 2021-W31
C/2020 U3 (Rankin),e,30.1698,282.6738,124.2830,65.72776,0.0018496,0.96536813,0.8304,05/01.0/2022,2000,g 15.0,4.0
# From MPEC 2022-ED3
C/2020 U4 (PANSTARRS),h,04/08.0137/2022,167.0358,120.0136,69.5371,1.001327,5.353681,2000,7.0,4.0
# From MPEC 2022-HC2
C/2020 U5 (PANSTARRS),e,97.2701,107.3359,75.4183,5236,0.0000026,0.99928268,0.0000,04/27.8949/2022,2000,g  8.0,4.0
# From MPEC 2022-H30
C/2020 V2 (ZTF),h,05/08.5093/2023,131.6103,212.3660,162.4083,1.001127,2.228172,2000,4.9,4.0
# From MPEC 2021-N06
P/2020 V3 (PANSTARRS),e,23.0317,198.2589,249.3385,8.373697,0.0406751,0.25598715,18.1520,05/01.0/2022,2000,g  8.3,4.0
# From MPEC 2022-H04
P/2020 V4 (Rankin),e,14.2431,203.4924,256.9936,9.353793,0.0344526,0.44958389,9.8954,05/01.0/2022,2000,g  9.0,4.0
# From MPEC 2021-BE3
P/2020 W1 (Rankin),e,10.7907,124.2652,264.9451,7.206181,0.0509503,0.26600259,38.4512,05/01.0/2022,2000,g 10.0,4.0
# From MPEC 2021-BE3
C/2020 W5 (Lemmon),h,11/30.0647/2020,88.5841,75.4960,24.4806,1.000693,3.364366,2000,15.0,4.0
# From MPEC 2022-HC1
P/2020 WJ5 (Lemmon),e,22.2939,177.8106,338.3405,6.017337,0.0667725,0.17127205,20.1957,05/01.0/2022,2000,g  8.5,4.0
# From MPEC 2021-P47
P/2020 X1 (ATLAS),e,31.6936,56.0127,323.3165,4.527945,0.1022945,0.36553819,66.4357,05/01.0/2022,2000,g 13.0,4.0
# From MPEC 2021-U31
C/2020 X2 (ATLAS),e,18.1877,105.4488,347.3403,16.41767,0.0148162,0.76684983,7.8700,05/01.0/2022,2000,g 10.6,4.0
# From MPEC 2021-S45
C/2020 X4 (Leonard),e,80.6230,161.8876,140.3036,41.55743,0.0036790,0.87440646,1.9510,05/01.0/2022,2000,g  9.0,4.0
# From MPEC 2022-HC2
C/2020 Y2 (ATLAS),e,101.2976,26.5133,266.1015,1123,0.0000262,0.99721031,0.0000,06/17.6833/2022,2000,g  6.5,4.0
# From MPEC 2021-R75
C/2020 Y3 (ATLAS),e,83.1012,191.4374,342.0141,147.1362,0.0005522,0.98641681,0.0000,12/03.4195/2020,2000,g 13.5,4.0
# From MPEC 2022-H04
C/2021 A1 (Leonard),e,132.6855,255.8970,225.0916,84211,0.0000000,0.99999269,0.0000,01/03.2974/2022,2000,g  8.5,4.0
# From MPEC 2022-F14
C/2021 A2 (NEOWISE),e,106.9778,125.2312,338.8208,245.2861,0.0002566,0.99424122,0.0000,01/22.5810/2021,2000,g 13.5,4.0
# From MPEC 2022-ED3
C/2021 A4 (NEOWISE),e,111.5441,307.1066,204.7047,42.86787,0.0035116,0.97325386,0.0000,03/19.9798/2021,2000,g 16.0,4.0
# From MPEC 2021-BE3
P/2021 A5 (PANSTARRS),e,18.1874,328.7681,61.2189,3.047199,0.1852903,0.13983630,99.1265,05/01.0/2022,2000,g 15.0,4.0
# From MPEC 2022-GA9
C/2021 A6 (PANSTARRS),e,75.6123,164.0794,351.6862,10465,0.0000009,0.99924239,0.0000,05/04.0351/2021,2000,g  7.0,4.0
# From MPEC 2022-GA9
C/2021 A7 (NEOWISE),e,78.1498,154.5179,356.0464,4427,0.0000033,0.99955559,0.0000,07/15.2864/2021,2000,g 10.0,4.0
# From MPEC 2022-GA9
C/2021 A9 (PANSTARRS),h,12/01.3544/2023,158.0251,314.8432,211.4555,1.003638,7.759989,2000,6.0,4.0
# From MPEC 2021-N06
C/2021 A10 (NEOWISE),e,151.8221,188.5720,82.5208,99.35664,0.0009952,0.98722992,0.0000,03/15.4767/2021,2000,g 19.0,4.0
# From MPEC 2022-ED3
C/2021 B2 (PANSTARRS),e,38.0902,120.5513,334.9654,350.3453,0.0001503,0.99282783,0.0000,05/04.2674/2021,2000,g 14.0,4.0
# From MPEC 2021-N06
C/2021 B3 (NEOWISE),e,119.4824,67.2862,293.5529,34.80713,0.0047996,0.93793715,1.9973,05/01.0/2022,2000,g 13.5,4.0
# From MPEC 2022-ED3
C/2021 C1 (Rankin),e,143.0446,186.8974,336.2946,105470,0.0000000,0.99996700,0.0000,12/07.0927/2020,2000,g 11.5,4.0
# From MPEC 2021-U31
P/2021 C2 (PANSTARRS),e,21.9290,66.4764,78.7709,9.535563,0.0334722,0.48723460,14.4267,05/01.0/2022,2000,g 12.0,4.0
# From MPEC 2021-N06
C/2021 C3 (Catalina),e,122.1644,181.9266,357.1270,62.90971,0.0019753,0.96382385,0.8743,05/01.0/2022,2000,g 14.0,4.0
# From MPEC 2022-H30
C/2021 C4 (ATLAS),e,132.8508,194.2761,320.2309,27176,0.0000002,0.99983427,0.0000,01/17.1113/2021,2000,g  9.0,4.0
# From MPEC 2022-HC2
C/2021 C5 (PANSTARRS),e,50.7842,323.6896,270.9184,3911,0.0000040,0.99917112,0.0000,02/11.0566/2023,2000,g  9.0,4.0
# From MPEC 2022-F14
C/2021 C6 (Lemmon),h,11/13.2969/2021,164.6258,332.1556,203.5565,1.001533,3.271167,2000,12.0,4.0
# From MPEC 2022-F14
C/2021 D1 (SWAN),e,31.4544,311.2676,72.2370,98.33584,0.0010107,0.99082909,0.0000,02/27.6493/2021,2000,g 13.0,4.0
# From MPEC 2022-HC2
C/2021 D2 (ZTF),h,02/03.9817/2022,83.8298,305.6796,125.0295,1.001549,2.946309,2000,9.0,4.0
# From MPEC 2021-N06
A/2021 E2,e,167.4883,190.8202,342.4477,234.6351,0.0002742,0.99025135,0.0000,12/10.4654/2020,2000,g 15.0,2.0
# From MPEC 2022-HC2
C/2021 E3 (ZTF),h,06/11.9075/2022,112.5547,104.4682,228.8480,1.000871,1.777387,2000,8.5,4.0
# From MPEC 2022-GA9
A/2021 E4,e,116.3614,171.1740,48.2765,680.4901,0.0000555,0.99312849,0.0000,04/25.3170/2022,2000,g 13.5,2.0
# From MPEC 2022-H30
C/2021 F1 (Lemmon-PANSTARRS),e,107.3247,203.4515,146.8231,237.6355,0.0002691,0.99581091,0.0000,04/06.8737/2022,2000,g 13.5,4.0
# From MPEC 2021-J72
C/2021 G1 (Leonard),e,131.5611,270.6986,107.4737,75.03748,0.0015163,0.95437619,0.4289,05/01.0/2022,2000,g 14.0,4.0
# From MPEC 2022-HC2
C/2021 G2 (ATLAS),e,48.4726,221.1148,343.3675,3806,0.0000042,0.99869181,0.0000,09/10.0381/2024,2000,g  5.5,4.0
# From MPEC 2022-ED3
C/2021 G3 (PANSTARRS),h,10/18.6562/2021,102.8910,147.4217,10.6549,1.001675,5.181617,2000,10.5,4.0
# From MPEC 2021-Y10
P/2021 HS (PANSTARRS),e,12.1705,262.3908,46.0877,4.194306,0.1147397,0.81008898,30.7072,05/01.0/2022,2000,g 22.0,4.0
# From MPEC 2022-C56
C/2021 J1 (Maury-Attard),e,92.7194,88.3257,147.3323,26.43975,0.0072497,0.93415597,3.1576,05/01.0/2022,2000,g 15.5,4.0
# From MPEC 2022-HC2
C/2021 J2 (PANSTARRS),e,156.2103,23.3303,172.0572,117.6330,0.0007725,0.95999004,0.1704,05/01.0/2022,2000,g 12.0,4.0
# From MPEC 2021-S45
P/2021 J3 (ATLAS),e,14.5447,111.1949,126.0197,8.942633,0.0368558,0.45008983,37.9895,05/01.0/2022,2000,g  7.0,4.0
# From MPEC 2022-ED3
C/2021 K1 (ATLAS),e,16.2758,140.9027,184.2789,12.69710,0.0217845,0.80329266,7.8762,05/01.0/2022,2000,g 11.0,4.0
# From MPEC 2022-GA9
C/2021 K2 (MASTER),h,09/09.3531/2021,100.8442,282.2453,343.3449,1.001109,5.467300,2000,8.0,4.0
# From MPEC 2021-U31
C/2021 K3 (Catalina),h,02/02.7751/2022,134.7754,114.4507,182.0056,1.003182,5.229889,2000,10.0,4.0
# From MPEC 2021-W31
P/2021 L2 (Leonard),e,21.0698,266.6572,51.5170,4.050345,0.1209111,0.52144455,33.9223,05/01.0/2022,2000,g 17.0,4.0
# From MPEC 2022-H30
C/2021 L3 (Borisov),h,02/13.5651/2022,78.5801,344.9687,91.5889,1.001640,8.457828,2000,6.0,4.0
# From MPEC 2021-R75
P/2021 L4 (PANSTARRS),e,16.9609,243.2227,234.5594,3.165145,0.1750305,0.11847806,169.8646,05/01.0/2022,2000,g 13.5,4.0
# From MPEC 2021-P47
P/2021 N1 (ZTF),e,11.5050,301.1666,21.2004,2.977289,0.1918547,0.67672102,63.0161,05/01.0/2022,2000,g 19.0,4.0
# From MPEC 2022-GA9
P/2021 N2 (Fuls),e,13.0627,221.7422,177.3604,6.932915,0.0539921,0.45237188,9.1035,05/01.0/2022,2000,g  9.5,4.0
# From MPEC 2021-W31
C/2021 N3 (PANSTARRS),e,26.7462,337.4950,304.6922,160.2293,0.0004859,0.96435643,0.3010,05/01.0/2022,2000,g  8.5,4.0
# From MPEC 2022-A21
C/2021 O1 (Nishimura),e,27.5772,41.6075,74.4475,2640,0.0000073,0.99970204,0.0000,08/13.9304/2021,2000,g 10.5,4.0
# From MPEC 2022-C56
C/2021 O3 (PANSTARRS),h,04/21.0476/2022,56.7917,189.0196,299.9919,1.000094,0.287319,2000,10.5,4.0
# From MPEC 2022-CN4
C/2021 P1 (PANSTARRS),e,51.6363,359.6760,40.4215,3695,0.0000044,0.99881622,0.0000,06/02.1276/2022,2000,g 11.0,4.0
# From MPEC 2022-C56
